IRIDIUM 171             
1 43929U 19002H   26002.67040524 -.00000013  00000+0 -11721-4 0  9998
2 43929  86.3953  63.0525 0002261  93.1876 266.9578 14.34217499365235
IRIDIUM 170             
1 43930U 19002J   26002.66378760  .00001144  00000+0  17758-3 0  9994
2 43930  86.6069  62.7630 0002321  88.0632 272.0851 14.72238060374906
IRIDIUM 167             
1 43931U 19002K   26002.66406334  .00000049  00000+0  10396-4 0  9999
2 43931  86.3947  62.7884 0002654  93.9360 266.2139 14.34217664365237
IRIDIUM 181             
1 56726U 23068S   26002.82517519  .00000553  00000+0  15837-3 0  9992
2 56726  86.4527 125.9213 0001775  81.3407 278.7995 14.43310580138587
IRIDIUM 177             
1 56727U 23068T   26002.63103422  .00001525  00000+0  19721-3 0  9992
2 56727  86.1946  47.4051 0002235  89.9617 270.1860 14.80217929141874
IRIDIUM 174             
1 56728U 23068U   26002.65144482  .00001741  00000+0  27227-3 0  9996
2 56728  86.6074  62.8989 0002167  91.8812 268.2653 14.72246807141669
IRIDIUM 178             
1 56729U 23068V   26002.75531118  .00002649  00000+0  34547-3 0  9995
2 56729  86.6541  94.5201 0002545  84.4990 275.6522 14.80199790141892
IRIDIUM 179             
1 56730U 23068W   26002.74998024  .00002886  00000+0  37643-3 0  9992
2 56730  86.6792 103.0099 0002464  93.5305 266.6198 14.80229208141891
